GALAXY 34 (G-34)        
1 54027U 22128B   26192.04037516  .00000067  00000+0  00000+0 0  9990
2 54027   0.0112  37.5715 0001349  92.1383  44.7761  1.00269972 14151
ANGOSAT 2               
1 54033U 22131A   26192.49807312  .00000141  00000+0  00000+0 0  9992
2 54033   0.0206 116.2041 0000238 125.0439 250.4629  1.00271398 13729
EUTELSAT HOTBIRD 13F    
1 54048U 22134A   26192.36183559  .00000093  00000+0  00000+0 0  9993
2 54048   0.0527 288.2883 0001894  64.0246  80.2271  1.00270860 13615
LDPE-2                  
1 54219U 22144A   26192.68097331  .00000047  00000+0  00000+0 0  9990
2 54219   5.6696  63.4450 0002399 110.9246 226.3752  1.00542582 12088
EUTELSAT HOTBIRD 13G    
1 54225U 22146A   26192.35359970  .00000093  00000+0  00000+0 0  9994
2 54225   0.0506 221.5233 0002141 324.5062 243.5272  1.00270372  7700
ZHONGXING-19            
1 54230U 22148A   26192.73984936 -.00000077  00000+0  00000+0 0  9993
2 54230   0.0169 301.5548 0002931 197.1451 220.4752  1.00270479 13625
GALAXY 31 (G-31)        
1 54243U 22153A   26192.68357332  .00000000  00000+0  00000+0 0  9996
2 54243   0.0240  56.8389 0000918  61.9689 295.8604  1.00270051  7379
GALAXY 32 (G-32)        
1 54244U 22153B   26192.26174809 -.00000167  00000+0  00000+0 0  9992
2 54244   0.0115  41.9388 0001456   4.2849 246.1793  1.00271069 13387
EUTELSAT 10B            
1 54259U 22157A   26192.36225226  .00000074  00000+0  00000+0 0  9999
2 54259   0.0608  95.6005 0001665  17.8010 316.2721  1.00270308 13266
GALAXY 35 (G-35)        
1 54741U 22170A   26192.54650618  .00000000  00000+0  00000+0 0  9996
2 54741   0.0202  46.8061 0001861  69.5705 276.7162  1.00269358 13133
GALAXY 36 (G-36)        
1 54742U 22170B   26192.61857076 -.00000180  00000+0  00000+0 0  9992
2 54742   0.0280 112.7081 0002364 347.0033 323.5001  1.00271183 13011
METEOSAT-12 (MTG-I1)    
1 54743U 22170C   26192.63616418 -.00000003  00000+0  00000+0 0  9992
2 54743   0.7212  19.0334 0003785  82.9511  56.3064  1.00266959 13226
SHIJIAN-23 (SJ-23)      
1 55131U 23002A   26192.71564480 -.00000344  00000+0  00000+0 0  9997
2 55131   3.7776  78.0038 0003417 270.2862 330.4998  1.00078207 12751
APSTAR-6E               
1 55239U 23005A   26192.63717748 -.00000313  00000+0  00000+0 0  9993
2 55239   0.0556 234.0324 0002025 334.1463  84.7657  1.00267652 18930
USA 342                 
1 55263U 23008A   26190.28864118  .00000000  00000+0  00000+0 0  9998
2 55263   0.0052 352.2306 0000262   7.3445  55.4773  1.00269378 12734
LDPE-3A                 
1 55264U 23008B   26192.66623990 -.00000283  00000+0  00000+0 0  9998
2 55264   2.4089  81.3617 0001514  79.3487 160.7337  0.99151057 12054
ELEKTRO-L 4             
1 55506U 23016A   26192.73490964 -.00000053  00000+0  00000+0 0  9992
2 55506   0.1079 129.0725 0001250  47.6019 183.3204  1.00272369 12577
AMAZONAS NEXUS          
1 55508U 23017A   26192.55283288 -.00000277  00000+0  00000+0 0  9992
2 55508   0.0349  41.3147 0004412  43.3627 342.7993  1.00269216  7288
ZHONGXING-26            
1 55686U 23023A   26192.66095321 -.00000349  00000+0  00000+0 0  9997
2 55686   0.0660  71.3982 0003364  31.9982 189.2021  1.00274397 12472
LUCH-5X (OLYMP-K 2)     
1 55841U 23031A   26192.68287691  .00000038  00000+0  00000+0 0  9998
2 55841   0.0297  92.0561 0000943 160.2588 345.0840  1.00270002 12180
GAOFEN-13 02            
1 55912U 23036A   26192.73681602 -.00000214  00000+0  00000+0 0  9995
2 55912   1.0265   4.1072 0003723 336.6905   2.2881  1.00275007 12331
SES-18                  
1 55970U 23038A   26192.61579741 -.00000096  00000+0  00000+0 0  9996
2 55970   0.0489 264.9854 0000713 308.1870 194.9434  1.00271302 12345
SES-19                  
1 55971U 23038B   26192.68079998  .00000092  00000+0  00000+0 0  9998
2 55971   0.0215 316.1820 0001609 166.3675 277.2305  1.00272631 12335
INTELSAT 40E (IS-40E)   
1 56174U 23052A   26192.61822410 -.00000169  00000+0  00000+0 0  9994
2 56174   0.0140  86.2788 0002204  58.7691 276.0379  1.00271412 12064
VIASAT-3 F1             
1 56370U 23060A   26192.61857076  .00000000  00000+0  00000+0 0  9990
2 56370   0.0165  22.6078 0000991  85.8886 314.7384  1.00269071 11673
ARCTURUS                
1 56371U 23060B   26192.78289115 -.00000315  00000+0  00000+0 0  9992
2 56371   2.8360  79.6362 0000796 133.2289  93.7009  1.00596073 11704
GS-1                    
1 56372U 23060C   26192.65388132 -.00000220  00000+0  00000+0 0  9993
2 56372   2.7867  79.5440 0003464 281.5006 253.2654  1.00267738  7786
BEIDOU-3 G4             
1 56564U 23066A   26192.73525601 -.00000275  00000+0  00000+0 0  9995
2 56564   0.4636 337.8520 0004867 188.1360 168.3851  1.00273675 11631
ARABSAT-7B (BADR-8)     
1 56757U 23075A   26192.64136420  .00000150  00000+0  00000+0 0  9997
2 56757   0.0729  29.1224 0003376   1.5471 155.7651  1.00270449 11365
NVS-01 (IRNSS-1J)       
1 56759U 23076A   26192.73317600 -.00000330  00000+0  00000+0 0  9992
2 56759   2.1106 243.2487 0003523   7.3754  72.4492  1.00266270 11366
NUSANTARA TIGA (SATRIA) 
1 57045U 23086A   26192.58933976 -.00000230  00000+0  00000+0 0  9994
2 57045   0.0344  10.1723 0002240 330.6150 306.8651  1.00267940 10003
