OBJECT_NAME,OBJECT_ID,EPOCH,MEAN_MOTION,ECCENTRICITY,INCLINATION,RA_OF_ASC_NODE,ARG_OF_PERICENTER,MEAN_ANOMALY,EPHEMERIS_TYPE,CLASSIFICATION_TYPE,NORAD_CAT_ID,ELEMENT_SET_NO,REV_AT_EPOCH,BSTAR,MEAN_MOTION_DOT,MEAN_MOTION_DDOT
GALAXY 34 (G-34),2022-128B,2026-07-11T00:58:08.413824,1.00269972,.00013492,0.0112,37.5715,92.1383,44.7761,0,U,54027,999,1415,0,.67E-6,0
ANGOSAT 2,2022-131A,2026-07-11T11:57:13.517568,1.00271398,.00002383,0.0206,116.2041,125.0439,250.4629,0,U,54033,999,1372,0,.141E-5,0
EUTELSAT HOTBIRD 13F,2022-134A,2026-07-11T08:41:02.594976,1.00270860,.00018943,0.0527,288.2883,64.0246,80.2271,0,U,54048,999,1361,0,.93E-6,0
LDPE-2,2022-144A,2026-07-11T16:20:36.093984,1.00542582,.00023993,5.6696,63.4450,110.9246,226.3752,0,U,54219,999,1208,0,.47E-6,0
EUTELSAT HOTBIRD 13G,2022-146A,2026-07-11T08:29:11.014080,1.00270372,.00021413,0.0506,221.5233,324.5062,243.5272,0,U,54225,999,770,0,.93E-6,0
ZHONGXING-19,2022-148A,2026-07-11T17:45:22.984704,1.00270479,.00029318,0.0169,301.5548,197.1451,220.4752,0,U,54230,999,1362,0,-.77E-6,0
GALAXY 31 (G-31),2022-153A,2026-07-11T16:24:20.734848,1.00270051,.00009183,0.0240,56.8389,61.9689,295.8604,0,U,54243,999,737,0,0,0
GALAXY 32 (G-32),2022-153B,2026-07-11T06:16:55.034976,1.00271069,.00014569,0.0115,41.9388,4.2849,246.1793,0,U,54244,999,1338,0,-.167E-5,0
EUTELSAT 10B,2022-157A,2026-07-11T08:41:38.595264,1.00270308,.00016655,0.0608,95.6005,17.8010,316.2721,0,U,54259,999,1326,0,.74E-6,0
GALAXY 35 (G-35),2022-170A,2026-07-11T13:06:58.133952,1.00269358,.00018617,0.0202,46.8061,69.5705,276.7162,0,U,54741,999,1313,0,0,0
GALAXY 36 (G-36),2022-170B,2026-07-11T14:50:44.513664,1.00271183,.00023649,0.0280,112.7081,347.0033,323.5001,0,U,54742,999,1301,0,-.18E-5,0
METEOSAT-12 (MTG-I1),2022-170C,2026-07-11T15:16:04.585152,1.00266959,.00037851,0.7212,19.0334,82.9511,56.3064,0,U,54743,999,1322,0,-.3E-7,0
SHIJIAN-23 (SJ-23),2023-002A,2026-07-11T17:10:31.710720,1.00078207,.0003417,3.7776,78.0038,270.2862,330.4998,0,U,55131,999,1275,0,-.344E-5,0
APSTAR-6E,2023-005A,2026-07-11T15:17:32.134272,1.00267652,.00020255,0.0556,234.0324,334.1463,84.7657,0,U,55239,999,1893,0,-.313E-5,0
USA 342,2023-008A,2026-07-09T06:55:38.597952,1.00269378,.0000262,0.0052,352.2306,7.3445,55.4773,0,U,55263,999,1273,0,0,0
LDPE-3A,2023-008B,2026-07-11T15:59:23.127360,0.99151057,.00015144,2.4089,81.3617,79.3487,160.7337,0,U,55264,999,1205,0,-.283E-5,0
ELEKTRO-L 4,2023-016A,2026-07-11T17:38:16.192896,1.00272369,.00012505,0.1079,129.0725,47.6019,183.3204,0,U,55506,999,1257,0,-.53E-6,0
AMAZONAS NEXUS,2023-017A,2026-07-11T13:16:04.760832,1.00269216,.00044123,0.0349,41.3147,43.3627,342.7993,0,U,55508,999,728,0,-.277E-5,0
ZHONGXING-26,2023-023A,2026-07-11T15:51:46.357344,1.00274397,.00033642,0.0660,71.3982,31.9982,189.2021,0,U,55686,999,1247,0,-.349E-5,0
LUCH-5X (OLYMP-K 2),2023-031A,2026-07-11T16:23:20.565024,1.00270002,.0000943,0.0297,92.0561,160.2588,345.0840,0,U,55841,999,1218,0,.38E-6,0
GAOFEN-13 02,2023-036A,2026-07-11T17:41:00.904128,1.00275007,.00037235,1.0265,4.1072,336.6905,2.2881,0,U,55912,999,1233,0,-.214E-5,0
SES-18,2023-038A,2026-07-11T14:46:44.896224,1.00271302,.00007133,0.0489,264.9854,308.1870,194.9434,0,U,55970,999,1234,0,-.96E-6,0
SES-19,2023-038B,2026-07-11T16:20:21.118272,1.00272631,.00016094,0.0215,316.1820,166.3675,277.2305,0,U,55971,999,1233,0,.92E-6,0
INTELSAT 40E (IS-40E),2023-052A,2026-07-11T14:50:14.562240,1.00271412,.00022047,0.0140,86.2788,58.7691,276.0379,0,U,56174,999,1206,0,-.169E-5,0
VIASAT-3 F1,2023-060A,2026-07-11T14:50:44.513664,1.00269071,.00009915,0.0165,22.6078,85.8886,314.7384,0,U,56370,999,1167,0,0,0
ARCTURUS,2023-060B,2026-07-11T18:47:21.795360,1.00596073,.00007964,2.8360,79.6362,133.2289,93.7009,0,U,56371,999,1170,0,-.315E-5,0
GS-1,2023-060C,2026-07-11T15:41:35.346048,1.00267738,.00034642,2.7867,79.5440,281.5006,253.2654,0,U,56372,999,778,0,-.22E-5,0
BEIDOU-3 G4,2023-066A,2026-07-11T17:38:46.119264,1.00273675,.00048676,0.4636,337.8520,188.1360,168.3851,0,U,56564,999,1163,0,-.275E-5,0
ARABSAT-7B (BADR-8),2023-075A,2026-07-11T15:23:33.866880,1.00270449,.0003376,0.0729,29.1224,1.5471,155.7651,0,U,56757,999,1136,0,.15E-5,0
NVS-01 (IRNSS-1J),2023-076A,2026-07-11T17:35:46.406400,1.00266270,.00035237,2.1106,243.2487,7.3754,72.4492,0,U,56759,999,1136,0,-.33E-5,0
NUSANTARA TIGA (SATRIA),2023-086A,2026-07-11T14:08:38.955264,1.00267940,.00022404,0.0344,10.1723,330.6150,306.8651,0,U,57045,999,1000,0,-.23E-5,0
